{
    "links": {
        "self": "http://www.neowsapp.com/rest/v1/neo/3825515?api_key=iIulBulltgU6a56xZRHN4H3l9WmuAYTsLGpBGhQ2"
    },
    "id": "3825515",
    "neo_reference_id": "3825515",
    "name": "(2018 NC)",
    "designation": "2018 NC",
    "nasa_jpl_url": "http://ssd.jpl.nasa.gov/sbdb.cgi?sstr=3825515",
    "absolute_magnitude_h": 20.3,
    "estimated_diameter": {
        "kilometers": {
            "estimated_diameter_min": 0.2315021222,
            "estimated_diameter_max": 0.5176544822
        },
        "meters": {
            "estimated_diameter_min": 231.5021222103,
            "estimated_diameter_max": 517.6544821978
        },
        "miles": {
            "estimated_diameter_min": 0.1438487052,
            "estimated_diameter_max": 0.3216554833
        },
        "feet": {
            "estimated_diameter_min": 759.5214226325,
            "estimated_diameter_max": 1698.3415313737
        }
    },
    "is_potentially_hazardous_asteroid": true,
    "close_approach_data": [
        {
            "close_approach_date": "2015-06-03",
            "close_approach_date_full": "2015-Jun-03 02:15",
            "epoch_date_close_approach": 1433297700000,
            "relative_velocity": {
                "kilometers_per_second": "7.0414949167",
                "kilometers_per_hour": "25349.381700286",
                "miles_per_hour": "15751.1199792694"
            },
            "miss_distance": {
                "astronomical": "0.1262827232",
                "lunar": "49.1239793248",
                "kilometers": "18891626.408519584",
                "miles": "11738712.3189308992"
            },
            "orbiting_body": "Venus"
        },
        {
            "close_approach_date": "2018-07-02",
            "close_approach_date_full": "2018-Jul-02 22:20",
            "epoch_date_close_approach": 1530570000000,
            "relative_velocity": {
                "kilometers_per_second": "21.255228646",
                "kilometers_per_hour": "76518.8231256425",
                "miles_per_hour": "47545.8209582638"
            },
            "miss_distance": {
                "astronomical": "0.2511701814",
                "lunar": "97.7052005646",
                "kilometers": "37574524.144953618",
                "miles": "23347726.6552032084"
            },
            "orbiting_body": "Earth"
        },
        {
            "close_approach_date": "2021-06-12",
            "close_approach_date_full": "2021-Jun-12 13:45",
            "epoch_date_close_approach": 1623505500000,
            "relative_velocity": {
                "kilometers_per_second": "13.2015023991",
                "kilometers_per_hour": "47525.40863663",
                "miles_per_hour": "29530.440716466"
            },
            "miss_distance": {
                "astronomical": "0.0913685003",
                "lunar": "35.5423466167",
                "kilometers": "13668533.029974361",
                "miles": "8493232.5883977418"
            },
            "orbiting_body": "Earth"
        }
    ],
    "orbital_data": {
        "orbit_id": "10",
        "orbit_determination_date": "2019-03-17 07:26:50",
        "first_observation_date": "2018-07-02",
        "last_observation_date": "2018-08-06",
        "data_arc_in_days": 35,
        "observations_used": 59,
        "orbit_uncertainty": "7",
        "minimum_orbit_intersection": ".0369094",
        "jupiter_tisserand_invariant": "3.528",
        "epoch_osculation": "2459000.5",
        "eccentricity": ".5984263747864589",
        "semi_major_axis": "2.059363624195158",
        "inclination": "6.705996558277654",
        "ascending_node_longitude": "128.4365022739561",
        "orbital_period": "1079.43869613588",
        "perihelion_distance": ".826986116200946",
        "perihelion_argument": "74.96516433527302",
        "aphelion_distance": "3.291741132189369",
        "perihelion_time": "2459336.186793669325",
        "mean_anomaly": "248.046216840697",
        "mean_motion": ".3335066653518256",
        "equinox": "J2000",
        "orbit_class": {
            "orbit_class_type": "APO",
            "orbit_class_description": "Near-Earth asteroid orbits which cross the Earth’s orbit similar to that of 1862 Apollo",
            "orbit_class_range": "a (semi-major axis) > 1.0 AU; q (perihelion) < 1.017 AU"
        }
    },
    "is_sentry_object": false
}